start=new Date('2022-02-28T00:00:00.000Z').valueOf();
sats=[{"OBJECT_TYPE":"PAYLOAD","PERIAPSIS":"545.915","TLE_LINE2":"2 46790  53.0555  84.7045 0001850  55.6865 304.4299 15.06405529 74973","REF_FRAME":"TEME","RA_OF_ASC_NODE":"84.7045","MEAN_ELEMENT_THEORY":"SGP4","NORAD_CAT_ID":"46790","APOAPSIS":"548.478","MEAN_MOTION_DDOT":"0.0000000000000","BSTAR":"0.00012741000000","EPOCH":"2022-02-27T19:09:20.951424","OBJECT_ID":"2020-074BD","DECAY_DATE":null,"INCLINATION":"53.0555","FILE":"3331200","LAUNCH_DATE":"2020-10-24","ARG_OF_PERICENTER":"55.6865","MEAN_MOTION_DOT":"0.00001617","ELEMENT_SET_NO":"999","SEMIMAJOR_AXIS":"6925.332","GP_ID":"197285125","REV_AT_EPOCH":"7497","MEAN_ANOMALY":"304.4299","ECCENTRICITY":"0.00018500","CENTER_NAME":"EARTH","TLE_LINE1":"1 46790U 20074BD  22058.79815916  .00001617  00000-0  12741-3 0  9995","PERIOD":"95.592","COUNTRY_CODE":"US","CLASSIFICATION_TYPE":"U","TIME_SYSTEM":"UTC","EPHEMERIS_TYPE":"0","RCS_SIZE":"LARGE","MEAN_MOTION":"15.06405529","OBJECT_NAME":"STARLINK-1931","SITE":"AFETR"},{"APOAPSIS":"548.322","MEAN_MOTION_DDOT":"0.0000000000000","BSTAR":"0.00007395400000","OBJECT_ID":"2020-074BE","EPOCH":"2022-02-27T11:32:52.263744","INCLINATION":"53.0534","DECAY_DATE":null,"FILE":"3329903","MEAN_MOTION_DOT":"0.00000820","LAUNCH_DATE":"2020-10-24","ARG_OF_PERICENTER":"55.6682","OBJECT_TYPE":"PAYLOAD","PERIAPSIS":"546.092","TLE_LINE2":"2 46791  53.0534  86.1217 0001610  55.6682 304.4459 15.06402283 74937","REF_FRAME":"TEME","RA_OF_ASC_NODE":"86.1217","MEAN_ELEMENT_THEORY":"SGP4","NORAD_CAT_ID":"46791","COUNTRY_CODE":"US","CLASSIFICATION_TYPE":"U","TIME_SYSTEM":"UTC","EPHEMERIS_TYPE":"0","MEAN_MOTION":"15.06402283","OBJECT_NAME":"STARLINK-1933","RCS_SIZE":"LARGE","SITE":"AFETR","ELEMENT_SET_NO":"999","REV_AT_EPOCH":"7493","SEMIMAJOR_AXIS":"6925.342","GP_ID":"197234649","MEAN_ANOMALY":"304.4459","TLE_LINE1":"1 46791U 20074BE  22058.48116046  .00000820  00000-0  73954-4 0  9999","ECCENTRICITY":"0.00016100","CENTER_NAME":"EARTH","PERIOD":"95.592"},{"MEAN_MOTION_DOT":"0.00002038","ARG_OF_PERICENTER":"45.4770","LAUNCH_DATE":"2020-10-24","INCLINATION":"53.0532","DECAY_DATE":null,"FILE":"3331200","BSTAR":"0.00015571000000","EPOCH":"2022-02-27T18:33:31.552704","OBJECT_ID":"2020-074BF","APOAPSIS":"548.772","MEAN_MOTION_DDOT":"0.0000000000000","MEAN_ELEMENT_THEORY":"SGP4","NORAD_CAT_ID":"46792","TLE_LINE2":"2 46792  53.0532  74.8107 0002220  45.4770 314.6399 15.06393198 75112","REF_FRAME":"TEME","RA_OF_ASC_NODE":"74.8107","OBJECT_TYPE":"PAYLOAD","PERIAPSIS":"545.697","MEAN_MOTION":"15.06393198","OBJECT_NAME":"STARLINK-1934","RCS_SIZE":"LARGE","SITE":"AFETR","EPHEMERIS_TYPE":"0","TIME_SYSTEM":"UTC","COUNTRY_CODE":"US","CLASSIFICATION_TYPE":"U","PERIOD":"95.593","MEAN_ANOMALY":"314.6399","TLE_LINE1":"1 46792U 20074BF  22058.77328186  .00002038  00000-0  15571-3 0  9995","CENTER_NAME":"EARTH","ECCENTRICITY":"0.00022200","REV_AT_EPOCH":"7511","SEMIMAJOR_AXIS":"6925.369","GP_ID":"197286127","ELEMENT_SET_NO":"999"},{"REV_AT_EPOCH":"7497","SEMIMAJOR_AXIS":"6925.345","GP_ID":"197285376","ELEMENT_SET_NO":"999","PERIOD":"95.592","MEAN_ANOMALY":"306.2661","TLE_LINE1":"1 46793U 20074BG  22058.80184586 -.00001628  00000-0 -90415-4 0  9991","CENTER_NAME":"EARTH","ECCENTRICITY":"0.00017830","TIME_SYSTEM":"UTC","COUNTRY_CODE":"US","CLASSIFICATION_TYPE":"U","MEAN_MOTION":"15.06401293","OBJECT_NAME":"STARLINK-1941","RCS_SIZE":"LARGE","SITE":"AFETR","EPHEMERIS_TYPE":"0","OBJECT_TYPE":"PAYLOAD","PERIAPSIS":"545.975","MEAN_ELEMENT_THEORY":"SGP4","NORAD_CAT_ID":"46793","TLE_LINE2":"2 46793  53.0547  84.6935 0001783  53.8493 306.2661 15.06401293 74973","REF_FRAME":"TEME","RA_OF_ASC_NODE":"84.6935","BSTAR":"-0.00009041500000","OBJECT_ID":"2020-074BG","EPOCH":"2022-02-27T19:14:39.482304","APOAPSIS":"548.444","MEAN_MOTION_DDOT":"0.0000000000000","MEAN_MOTION_DOT":"-0.00001628","LAUNCH_DATE":"2020-10-24","ARG_OF_PERICENTER":"53.8493","INCLINATION":"53.0547","DECAY_DATE":null,"FILE":"3331200"},{"MEAN_MOTION_DOT":"0.00001168","ARG_OF_PERICENTER":"56.8899","LAUNCH_DATE":"2020-10-24","FILE":"3329903","INCLINATION":"53.0545","DECAY_DATE":null,"OBJECT_ID":"2020-074BH","EPOCH":"2022-02-27T11:27:33.916032","BSTAR":"0.00009730600000","MEAN_MOTION_DDOT":"0.0000000000000","APOAPSIS":"548.493","NORAD_CAT_ID":"46794","MEAN_ELEMENT_THEORY":"SGP4","RA_OF_ASC_NODE":"86.1519","REF_FRAME":"TEME","TLE_LINE2":"2 46794  53.0545  86.1519 0001860  56.8899 303.2268 15.06402687 74930","PERIAPSIS":"545.917","OBJECT_TYPE":"PAYLOAD","SITE":"AFETR","OBJECT_NAME":"STARLINK-1942","MEAN_MOTION":"15.06402687","RCS_SIZE":"LARGE","EPHEMERIS_TYPE":"0","TIME_SYSTEM":"UTC","CLASSIFICATION_TYPE":"U","COUNTRY_CODE":"US","PERIOD":"95.592","TLE_LINE1":"1 46794U 20074BH  22058.47747588  .00001168  00000-0  97306-4 0  9995","CENTER_NAME":"EARTH","ECCENTRICITY":"0.00018600","MEAN_ANOMALY":"303.2268","REV_AT_EPOCH":"7493","SEMIMAJOR_AXIS":"6925.340","GP_ID":"197235402","ELEMENT_SET_NO":"999"},{"MEAN_MOTION_DDOT":"0.0000000000000","APOAPSIS":"548.518","EPOCH":"2022-02-27T10:51:45.870336","OBJECT_ID":"2020-074BK","BSTAR":"0.00012616000000","FILE":"3329903","INCLINATION":"53.0542","DECAY_DATE":null,"MEAN_MOTION_DOT":"0.00001598","ARG_OF_PERICENTER":"48.2103","LAUNCH_DATE":"2020-10-24","PERIAPSIS":"545.928","OBJECT_TYPE":"PAYLOAD","RA_OF_ASC_NODE":"76.2633","REF_FRAME":"TEME","TLE_LINE2":"2 46796  53.0542  76.2633 0001870  48.2103 311.9045 15.06396785 75065","NORAD_CAT_ID":"46796","MEAN_ELEMENT_THEORY":"SGP4","CLASSIFICATION_TYPE":"U","COUNTRY_CODE":"US","TIME_SYSTEM":"UTC","EPHEMERIS_TYPE":"0","SITE":"AFETR","MEAN_MOTION":"15.06396785","OBJECT_NAME":"STARLINK-1944","RCS_SIZE":"LARGE","ELEMENT_SET_NO":"999","REV_AT_EPOCH":"7506","GP_ID":"197234150","SEMIMAJOR_AXIS":"6925.358","TLE_LINE1":"1 46796U 20074BK  22058.45261424  .00001598  00000-0  12616-3 0  9992","CENTER_NAME":"EARTH","ECCENTRICITY":"0.00018700","MEAN_ANOMALY":"311.9045","PERIOD":"95.592"},{"MEAN_ANOMALY":"84.5045","ECCENTRICITY":"0.00084440","CENTER_NAME":"EARTH","TLE_LINE1":"1 46797U 20074BL  22058.19031456  .00020280  00000-0  15513-3 0  9992","PERIOD":"91.595","ELEMENT_SET_NO":"999","GP_ID":"197234898","SEMIMAJOR_AXIS":"6730.932","REV_AT_EPOCH":"7608","EPHEMERIS_TYPE":"0","RCS_SIZE":"LARGE","MEAN_MOTION":"15.72135287","OBJECT_NAME":"STARLINK-1947","SITE":"AFETR","COUNTRY_CODE":"US","CLASSIFICATION_TYPE":"U","TIME_SYSTEM":"UTC","TLE_LINE2":"2 46797  53.0524   2.7735 0008444 275.5010  84.5045 15.72135287 76086","RA_OF_ASC_NODE":"2.7735","REF_FRAME":"TEME","MEAN_ELEMENT_THEORY":"SGP4","NORAD_CAT_ID":"46797","OBJECT_TYPE":"PAYLOAD","PERIAPSIS":"347.114","DECAY_DATE":null,"INCLINATION":"53.0524","FILE":"3329903","ARG_OF_PERICENTER":"275.5010","LAUNCH_DATE":"2020-10-24","MEAN_MOTION_DOT":"0.00020280","APOAPSIS":"358.481","MEAN_MOTION_DDOT":"0.0000000000000","BSTAR":"0.00015513000000","EPOCH":"2022-02-27T04:34:03.177984","OBJECT_ID":"2020-074BL"},{"CENTER_NAME":"EARTH","ECCENTRICITY":"0.00016240","TLE_LINE1":"1 46798U 20074BM  22058.88245781 -.00000367  00000-0 -57050-5 0  9997","MEAN_ANOMALY":"299.3559","PERIOD":"95.592","ELEMENT_SET_NO":"999","SEMIMAJOR_AXIS":"6925.364","GP_ID":"197284876","REV_AT_EPOCH":"7478","EPHEMERIS_TYPE":"0","SITE":"AFETR","RCS_SIZE":"LARGE","OBJECT_NAME":"STARLINK-1948","MEAN_MOTION":"15.06394942","CLASSIFICATION_TYPE":"U","COUNTRY_CODE":"US","TIME_SYSTEM":"UTC","RA_OF_ASC_NODE":"99.3341","REF_FRAME":"TEME","TLE_LINE2":"2 46798  53.0542  99.3341 0001624  60.7592 299.3559 15.06394942 74787","NORAD_CAT_ID":"46798","MEAN_ELEMENT_THEORY":"SGP4","PERIAPSIS":"546.104","OBJECT_TYPE":"PAYLOAD","FILE":"3331200","DECAY_DATE":null,"INCLINATION":"53.0542","LAUNCH_DATE":"2020-10-24","ARG_OF_PERICENTER":"60.7592","MEAN_MOTION_DOT":"-0.00000367","MEAN_MOTION_DDOT":"0.0000000000000","APOAPSIS":"548.354","OBJECT_ID":"2020-074BM","EPOCH":"2022-02-27T21:10:44.354784","BSTAR":"-0.00000570500000"},{"TIME_SYSTEM":"UTC","COUNTRY_CODE":"US","CLASSIFICATION_TYPE":"U","RCS_SIZE":"LARGE","OBJECT_NAME":"STARLINK-1777","MEAN_MOTION":"15.06396526","SITE":"AFETR","EPHEMERIS_TYPE":"0","GP_ID":"197285664","SEMIMAJOR_AXIS":"6925.359","REV_AT_EPOCH":"7012","ELEMENT_SET_NO":"999","PERIOD":"95.592","MEAN_ANOMALY":"291.4863","ECCENTRICITY":"0.00014490","CENTER_NAME":"EARTH","TLE_LINE1":"1 47122U 20088A   22058.70417257  .00000640  00000-0  61857-4 0  9995","BSTAR":"0.00006185700000","EPOCH":"2022-02-27T16:54:00.510048","OBJECT_ID":"2020-088A","APOAPSIS":"548.228","MEAN_MOTION_DDOT":"0.0000000000000","ARG_OF_PERICENTER":"68.6281","LAUNCH_DATE":"2020-11-25","MEAN_MOTION_DOT":"0.00000640","DECAY_DATE":null,"INCLINATION":"53.0547","FILE":"3331200","OBJECT_TYPE":"PAYLOAD","PERIAPSIS":"546.221","MEAN_ELEMENT_THEORY":"SGP4","NORAD_CAT_ID":"47122","TLE_LINE2":"2 47122  53.0547  65.1197 0001449  68.6281 291.4863 15.06396526 70126","REF_FRAME":"TEME","RA_OF_ASC_NODE":"65.1197"},{"NORAD_CAT_ID":"47124","MEAN_ELEMENT_THEORY":"SGP4","REF_FRAME":"TEME","RA_OF_ASC_NODE":"69.9006","TLE_LINE2":"2 47124  53.0546  69.9006 0001783  58.3353 301.7809 15.06399042 70069","PERIAPSIS":"545.982","OBJECT_TYPE":"PAYLOAD","LAUNCH_DATE":"2020-11-25","ARG_OF_PERICENTER":"58.3353","MEAN_MOTION_DOT":"0.00000419","FILE":"3331200","DECAY_DATE":null,"INCLINATION":"53.0546","EPOCH":"2022-02-27T18:08:56.559552","OBJECT_ID":"2020-088C","BSTAR":"0.00004700700000","MEAN_MOTION_DDOT":"0.0000000000000","APOAPSIS":"548.451","PERIOD":"95.592","CENTER_NAME":"EARTH","ECCENTRICITY":"0.00017830","TLE_LINE1":"1 47124U 20088C   22058.75621018  .00000419  00000-0  47007-4 0  9999","MEAN_ANOMALY":"301.7809","SEMIMAJOR_AXIS":"6925.351","GP_ID":"197285915","REV_AT_EPOCH":"7006","ELEMENT_SET_NO":"999","SITE":"AFETR","RCS_SIZE":"LARGE","MEAN_MOTION":"15.06399042","OBJECT_NAME":"STARLINK-1785","EPHEMERIS_TYPE":"0","TIME_SYSTEM":"UTC","CLASSIFICATION_TYPE":"U","COUNTRY_CODE":"US"}];
